CTC1_L_00043001-01
1 10000U 25382MQ  26075.70030093  .00000000  00000+0  00000-0 0  9992
2 10000  55.0000   0.0000 0000000   0.0000   0.0000 15.59190035    12
CTC1_L_00043001-02
1 10001U 26480LF  26075.70030093  .00000000  00000+0  00000-0 0  9993
2 10001  55.0000   0.0000 0000000   0.0000  90.0000 15.59190035    12
CTC1_L_00043001-03
1 10002U 22337OS  26075.70030093  .00000000  00000+0  00000-0 0  9991
2 10002  55.0000   0.0000 0000000   0.0000 180.0000 15.59190035    13
CTC1_L_00043001-04
1 10003U 23661JE  26075.70030093  .00000000  00000+0  00000-0 0  9993
2 10003  55.0000   0.0000 0000000   0.0000 270.0000 15.59190035    14
CTC1_L_00043002-01
1 10004U 25448EG  26075.70030093  .00000000  00000+0  00000-0 0  9999
2 10004  55.0000  12.0000 0000000   0.0000  12.0000 15.59190035    12
CTC1_L_00043002-02
1 10005U 26563JK  26075.70030093  .00000000  00000+0  00000-0 0  9999
2 10005  55.0000  12.0000 0000000   0.0000 102.0000 15.59190035    13
CTC1_L_00043002-03
1 10006U 24760WZ  26075.70030093  .00000000  00000+0  00000-0 0  9997
2 10006  55.0000  12.0000 0000000   0.0000 192.0000 15.59190035    13
CTC1_L_00043002-04
1 10007U 26412VK  26075.70030093  .00000000  00000+0  00000-0 0  9994
2 10007  55.0000  12.0000 0000000   0.0000 282.0000 15.59190035    14
CTC1_L_00043003-01
1 10008U 23697KH  26075.70030093  .00000000  00000+0  00000-0 0  9997
2 10008  55.0000  24.0000 0000000   0.0000  24.0000 15.59190035    12
CTC1_L_00043003-02
1 10009U 25327AD  26075.70030093  .00000000  00000+0  00000-0 0  9990
2 10009  55.0000  24.0000 0000000   0.0000 114.0000 15.59190035    13
CTC1_L_00043003-03
1 10010U 24815RX  26075.70030093  .00000000  00000+0  00000-0 0  9993
2 10010  55.0000  24.0000 0000000   0.0000 204.0000 15.59190035    15
CTC1_L_00043003-04
1 10011U 26730WQ  26075.70030093  .00000000  00000+0  00000-0 0  9992
2 10011  55.0000  24.0000 0000000   0.0000 294.0000 15.59190035    15
CTC1_L_00043004-01
1 10012U 24351JP  26075.70030093  .00000000  00000+0  00000-0 0  9990
2 10012  55.0000  36.0000 0000000   0.0000  36.0000 15.59190035    13
CTC1_L_00043004-02
1 10013U 26497IH  26075.70030093  .00000000  00000+0  00000-0 0  9994
2 10013  55.0000  36.0000 0000000   0.0000 126.0000 15.59190035    14
CTC1_L_00043004-03
1 10014U 24613AS  26075.70030093  .00000000  00000+0  00000-0 0  9993
2 10014  55.0000  36.0000 0000000   0.0000 216.0000 15.59190035    15
CTC1_L_00043004-04
1 10015U 22515GS  26075.70030093  .00000000  00000+0  00000-0 0  9993
2 10015  55.0000  36.0000 0000000   0.0000 306.0000 15.59190035    16
CTC1_L_00043005-01
1 10016U 23597VW  26075.70030093  .00000000  00000+0  00000-0 0  9995
2 10016  55.0000  48.0000 0000000   0.0000  48.0000 15.59190035    13
CTC1_L_00043005-02
1 10017U 25668OP  26075.70030093  .00000000  00000+0  00000-0 0  9997
2 10017  55.0000  48.0000 0000000   0.0000 138.0000 15.59190035    14
CTC1_L_00043005-03
1 10018U 24468FV  26075.70030093  .00000000  00000+0  00000-0 0  9995
2 10018  55.0000  48.0000 0000000   0.0000 228.0000 15.59190035    15
CTC1_L_00043005-04
1 10019U 23572VY  26075.70030093  .00000000  00000+0  00000-0 0  9991
2 10019  55.0000  48.0000 0000000   0.0000 318.0000 15.59190035    16
CTC1_L_00043006-01
1 10020U 24443EJ  26075.70030093  .00000000  00000+0  00000-0 0  9991
2 10020  55.0000  60.0000 0000000   0.0000  60.0000 15.59190035    16
CTC1_L_00043006-02
1 10021U 24326VZ  26075.70030093  .00000000  00000+0  00000-0 0  9992
2 10021  55.0000  60.0000 0000000   0.0000 150.0000 15.59190035    17
CTC1_L_00043006-03
1 10022U 24822NX  26075.70030093  .00000000  00000+0  00000-0 0  9994
2 10022  55.0000  60.0000 0000000   0.0000 240.0000 15.59190035    18
CTC1_L_00043006-04
1 10023U 22845GH  26075.70030093  .00000000  00000+0  00000-0 0  9998
2 10023  55.0000  60.0000 0000000   0.0000 330.0000 15.59190035    19
CTC1_L_00043007-01
1 10024U 26702RS  26075.70030093  .00000000  00000+0  00000-0 0  9995
2 10024  55.0000  72.0000 0000000   0.0000  72.0000 15.59190035    16
CTC1_L_00043007-02
1 10025U 23344DC  26075.70030093  .00000000  00000+0  00000-0 0  9995
2 10025  55.0000  72.0000 0000000   0.0000 162.0000 15.59190035    17
CTC1_L_00043007-03
1 10026U 23511OC  26075.70030093  .00000000  00000+0  00000-0 0  9992
2 10026  55.0000  72.0000 0000000   0.0000 252.0000 15.59190035    18
CTC1_L_00043007-04
1 10027U 22968NZ  26075.70030093  .00000000  00000+0  00000-0 0  9998
2 10027  55.0000  72.0000 0000000   0.0000 342.0000 15.59190035    19
CTC1_L_00043008-01
1 10028U 26232AT  26075.70030093  .00000000  00000+0  00000-0 0  9997
2 10028  55.0000  84.0000 0000000   0.0000  84.0000 15.59190035    16
CTC1_L_00043008-02
1 10029U 25031RA  26075.70030093  .00000000  00000+0  00000-0 0  9994
2 10029  55.0000  84.0000 0000000   0.0000 174.0000 15.59190035    17
CTC1_L_00043008-03
1 10030U 25465AV  26075.70030093  .00000000  00000+0  00000-0 0  9997
2 10030  55.0000  84.0000 0000000   0.0000 264.0000 15.59190035    19
CTC1_L_00043008-04
1 10031U 26742XO  26075.70030093  .00000000  00000+0  00000-0 0  9997
2 10031  55.0000  84.0000 0000000   0.0000 354.0000 15.59190035    10
CTC1_L_00043009-01
1 10032U 24216NS  26075.70030093  .00000000  00000+0  00000-0 0  9992
2 10032  55.0000  96.0000 0000000   0.0000  96.0000 15.59190035    17
CTC1_L_00043009-02
1 10033U 23165BD  26075.70030093  .00000000  00000+0  00000-0 0  9995
2 10033  55.0000  96.0000 0000000   0.0000 186.0000 15.59190035    18
CTC1_L_00043009-03
1 10034U 23788IH  26075.70030093  .00000000  00000+0  00000-0 0  9997
2 10034  55.0000  96.0000 0000000   0.0000 276.0000 15.59190035    19
CTC1_L_00043009-04
1 10035U 22280KN  26075.70030093  .00000000  00000+0  00000-0 0  9994
2 10035  55.0000  96.0000 0000000   0.0000   6.0000 15.59190035    11
CTC1_L_00043010-01
1 10036U 25173JI  26075.70030093  .00000000  00000+0  00000-0 0  9999
2 10036  55.0000 108.0000 0000000   0.0000 108.0000 15.59190035    19
CTC1_L_00043010-02
1 10037U 24592E   26075.70030093  .00000000  00000+0  00000-0 0  9994
2 10037  55.0000 108.0000 0000000   0.0000 198.0000 15.59190035    19
CTC1_L_00043010-03
1 10038U 22115QP  26075.70030093  .00000000  00000+0  00000-0 0  9994
2 10038  55.0000 108.0000 0000000   0.0000 288.0000 15.59190035    10
CTC1_L_00043010-04
1 10039U 26755F   26075.70030093  .00000000  00000+0  00000-0 0  9999
2 10039  55.0000 108.0000 0000000   0.0000  18.0000 15.59190035    12
CTC1_L_00043011-01
1 10040U 22306KN  26075.70030093  .00000000  00000+0  00000-0 0  9999
2 10040  55.0000 120.0000 0000000   0.0000 120.0000 15.59190035    12
CTC1_L_00043011-02
1 10041U 26795LU  26075.70030093  .00000000  00000+0  00000-0 0  9996
2 10041  55.0000 120.0000 0000000   0.0000 210.0000 15.59190035    13
CTC1_L_00043011-03
1 10042U 22724ND  26075.70030093  .00000000  00000+0  00000-0 0  9995
2 10042  55.0000 120.0000 0000000   0.0000 300.0000 15.59190035    14
CTC1_L_00043011-04
1 10043U 26679PP  26075.70030093  .00000000  00000+0  00000-0 0  9999
2 10043  55.0000 120.0000 0000000   0.0000  30.0000 15.59190035    15
CTC1_L_00043012-01
1 10044U 25521AO  26075.70030093  .00000000  00000+0  00000-0 0  9995
2 10044  55.0000 132.0000 0000000   0.0000 132.0000 15.59190035    12
CTC1_L_00043012-02
1 10045U 25475JX  26075.70030093  .00000000  00000+0  00000-0 0  9994
2 10045  55.0000 132.0000 0000000   0.0000 222.0000 15.59190035    13
CTC1_L_00043012-03
1 10046U 24464GU  26075.70030093  .00000000  00000+0  00000-0 0  9992
2 10046  55.0000 132.0000 0000000   0.0000 312.0000 15.59190035    14
CTC1_L_00043012-04
1 10047U 22593MC  26075.70030093  .00000000  00000+0  00000-0 0  9994
2 10047  55.0000 132.0000 0000000   0.0000  42.0000 15.59190035    15
CTC1_L_00043013-01
1 10048U 26964BN  26075.70030093  .00000000  00000+0  00000-0 0  9991
2 10048  55.0000 144.0000 0000000   0.0000 144.0000 15.59190035    12
CTC1_L_00043013-02
1 10049U 26926VL  26075.70030093  .00000000  00000+0  00000-0 0  9990
2 10049  55.0000 144.0000 0000000   0.0000 234.0000 15.59190035    13
CTC1_L_00043013-03
1 10050U 25081DP  26075.70030093  .00000000  00000+0  00000-0 0  9993
2 10050  55.0000 144.0000 0000000   0.0000 324.0000 15.59190035    15
CTC1_L_00043013-04
1 10051U 26171RT  26075.70030093  .00000000  00000+0  00000-0 0  9995
2 10051  55.0000 144.0000 0000000   0.0000  54.0000 15.59190035    16
CTC1_L_00043014-01
1 10052U 25855LQ  26075.70030093  .00000000  00000+0  00000-0 0  9994
2 10052  55.0000 156.0000 0000000   0.0000 156.0000 15.59190035    13
CTC1_L_00043014-02
1 10053U 24566FH  26075.70030093  .00000000  00000+0  00000-0 0  9993
2 10053  55.0000 156.0000 0000000   0.0000 246.0000 15.59190035    14
CTC1_L_00043014-03
1 10054U 26930IH  26075.70030093  .00000000  00000+0  00000-0 0  9991
2 10054  55.0000 156.0000 0000000   0.0000 336.0000 15.59190035    15
CTC1_L_00043014-04
1 10055U 25116EN  26075.70030093  .00000000  00000+0  00000-0 0  9997
2 10055  55.0000 156.0000 0000000   0.0000  66.0000 15.59190035    16
CTC1_L_00043015-01
1 10056U 23692KB  26075.70030093  .00000000  00000+0  00000-0 0  9995
2 10056  55.0000 168.0000 0000000   0.0000 168.0000 15.59190035    13
CTC1_L_00043015-02
1 10057U 26316KL  26075.70030093  .00000000  00000+0  00000-0 0  9992
2 10057  55.0000 168.0000 0000000   0.0000 258.0000 15.59190035    14
CTC1_L_00043015-03
1 10058U 26835RS  26075.70030093  .00000000  00000+0  00000-0 0  9999
2 10058  55.0000 168.0000 0000000   0.0000 348.0000 15.59190035    15
CTC1_L_00043015-04
1 10059U 23438L   26075.70030093  .00000000  00000+0  00000-0 0  9996
2 10059  55.0000 168.0000 0000000   0.0000  78.0000 15.59190035    16
CTC1_L_00043016-01
1 10060U 26067JX  26075.70030093  .00000000  00000+0  00000-0 0  9999
2 10060  55.0000 180.0000 0000000   0.0000 180.0000 15.59190035    16
CTC1_L_00043016-02
1 10061U 24302XV  26075.70030093  .00000000  00000+0  00000-0 0  9990
2 10061  55.0000 180.0000 0000000   0.0000 270.0000 15.59190035    17
